{"type": "FeatureCollection", "features": [ {"type": "Feature", "properties": {"norad_id": 32323, "name": "FENGYUN 1C DEB", "group": "fengyun-1c-debris", "lat": 6.120174591515407, "lon": 119.60855852038, "alt_km": 977.8506986488655, "timestamp": "2025-12-02T15:49:07.476474+00:00", "meta": {"OBJECT_NAME": "FENGYUN 1C DEB", "OBJECT_ID": "1999-025CXQ", "EPOCH": "2025-11-27T08:31:37.777440", "MEAN_MOTION": 13.96310713, "ECCENTRICITY": 0.01563544, "INCLINATION": 98.5696, "RA_OF_ASC_NODE": 115.5941, "ARG_OF_PERICENTER": 252.8199, "MEAN_ANOMALY": 105.5797, "EPHEMERIS_TYPE": 0, "CLASSIFICATION_TYPE": "U", "NORAD_CAT_ID": 32323, "ELEMENT_SET_NO": 999, "REV_AT_EPOCH": 60055, "BSTAR": 0.00293216, "MEAN_MOTION_DOT": 4.437e-05, "MEAN_MOTION_DDOT": 0}, "tle": {"line1": "1 32323U 99025CXQ 25331.35529835  .00004437  00000+0  29322-2 0  9999", "line2": "2 32323  98.5696 115.5941 0156354 252.8199 105.5797 13.96310713600558"}}, "geometry": {"type": "Point", "coordinates": [119.60855852038, 6.120174591515407]}}, {"type": "Feature", "properties": {"norad_id": 32324, "name": "FENGYUN 1C DEB", "group": "fengyun-1c-debris", "lat": 79.30281268101973, "lon": 15.005133517572382, "alt_km": 824.321870216223, "timestamp": "2025-12-02T15:49:07.476484+00:00", "meta": {"OBJECT_NAME": "FENGYUN 1C DEB", "OBJECT_ID": "1999-025CXR", "EPOCH": "2025-12-01T05:20:15.314208", "MEAN_MOTION": 14.09115713, "ECCENTRICITY": 0.0050455, "INCLINATION": 99.5337, "RA_OF_ASC_NODE": 76.3137, "ARG_OF_PERICENTER": 55.9833, "MEAN_ANOMALY": 304.6112, "EPHEMERIS_TYPE": 0, "CLASSIFICATION_TYPE": "U", "NORAD_CAT_ID": 32324, "ELEMENT_SET_NO": 999, "REV_AT_EPOCH": 63836, "BSTAR": 0.00061368, "MEAN_MOTION_DOT": 1.029e-05, "MEAN_MOTION_DDOT": 0}, "tle": {"line1": "1 32324U 99025CXR 25335.22239947  .00001029  00000+0  61368-3 0  9993", "line2": "2 32324  99.5337  76.3137 0050455  55.9833 304.6112 14.09115713638366"}}, "geometry": {"type": "Point", "coordinates": [15.005133517572382, 79.30281268101973]}}, {"type": "Feature", "properties": {"norad_id": 32326, "name": "FENGYUN 1C DEB", "group": "fengyun-1c-debris", "lat": -20.28595705105054, "lon": -89.63485685853844, "alt_km": 1289.9210469857007, "timestamp": "2025-12-02T15:49:07.476494+00:00", "meta": {"OBJECT_NAME": "FENGYUN 1C DEB", "OBJECT_ID": "1999-025CXT", "EPOCH": "2025-11-30T02:32:37.979232", "MEAN_MOTION": 13.69261307, "ECCENTRICITY": 0.03856265, "INCLINATION": 98.486, "RA_OF_ASC_NODE": 264.9459, "ARG_OF_PERICENTER": 173.0082, "MEAN_ANOMALY": 187.6669, "EPHEMERIS_TYPE": 0, "CLASSIFICATION_TYPE": "U", "NORAD_CAT_ID": 32326, "ELEMENT_SET_NO": 999, "REV_AT_EPOCH": 63009, "BSTAR": 0.00044957354, "MEAN_MOTION_DOT": 6.22e-06, "MEAN_MOTION_DDOT": 0}, "tle": {"line1": "1 32326U 99025CXT 25334.10599513  .00000622  00000+0  44957-3 0  9992", "line2": "2 32326  98.4860 264.9459 0385626 173.0082 187.6669 13.69261307630092"}}, "geometry": {"type": "Point", "coordinates": [-89.63485685853844, -20.28595705105054]}}, {"type": "Feature", "properties": {"norad_id": 32331, "name": "FENGYUN 1C DEB", "group": "fengyun-1c-debris", "lat": -30.13538456422894, "lon": -51.662702818026006, "alt_km": 672.9433651996142, "timestamp": "2025-12-02T15:49:07.476505+00:00", "meta": {"OBJECT_NAME": "FENGYUN 1C DEB", "OBJECT_ID": "1999-025CXY", "EPOCH": "2025-11-11T08:35:02.141088", "MEAN_MOTION": 14.68670701, "ECCENTRICITY": 0.0013407, "INCLINATION": 99.1837, "RA_OF_ASC_NODE": 279.0061, "ARG_OF_PERICENTER": 226.0291, "MEAN_ANOMALY": 133.9806, "EPHEMERIS_TYPE": 0, "CLASSIFICATION_TYPE": "U", "NORAD_CAT_ID": 32331, "ELEMENT_SET_NO": 999, "REV_AT_EPOCH": 60157, "BSTAR": 0.0092524, "MEAN_MOTION_DOT": 0.0005428, "MEAN_MOTION_DDOT": 0}, "tle": {"line1": "1 32331U 99025CXY 25315.35766367  .00054280  00000+0  92524-2 0  9998", "line2": "2 32331  99.1837 279.0061 0013407 226.0291 133.9806 14.68670701601572"}}, "geometry": {"type": "Point", "coordinates": [-51.662702818026006, -30.13538456422894]}}, {"type": "Feature", "properties": {"norad_id": 32332, "name": "FENGYUN 1C DEB", "group": "fengyun-1c-debris", "lat": 35.729536285788086, "lon": -142.5957485365202, "alt_km": 1099.5567250113145, "timestamp": "2025-12-02T15:49:07.476515+00:00", "meta": {"OBJECT_NAME": "FENGYUN 1C DEB", "OBJECT_ID": "1999-025CXZ", "EPOCH": "2025-11-29T21:49:05.913408", "MEAN_MOTION": 13.97030722, "ECCENTRICITY": 0.02850137, "INCLINATION": 99.1337, "RA_OF_ASC_NODE": 28.0232, "ARG_OF_PERICENTER": 348.1334, "MEAN_ANOMALY": 11.3206, "EPHEMERIS_TYPE": 0, "CLASSIFICATION_TYPE": "U", "NORAD_CAT_ID": 32332, "ELEMENT_SET_NO": 999, "REV_AT_EPOCH": 92857, "BSTAR": 0.0013397754, "MEAN_MOTION_DOT": 2.591e-05, "MEAN_MOTION_DDOT": 0}, "tle": {"line1": "1 32332U 99025CXZ 25333.90909622  .00002591  00000+0  13398-2 0  9993", "line2": "2 32332  99.1337  28.0232 0285013 348.1334  11.3206 13.97030722928577"}}, "geometry": {"type": "Point", "coordinates": [-142.5957485365202, 35.729536285788086]}}, {"type": "Feature", "properties": {"norad_id": 32334, "name": "FENGYUN 1C DEB", "group": "fengyun-1c-debris", "lat": 9.85370648884606, "lon": -147.44905253945973, "alt_km": 926.1682664889095, "timestamp": "2025-12-02T15:49:07.476526+00:00", "meta": {"OBJECT_NAME": "FENGYUN 1C DEB", "OBJECT_ID": "1999-025CYB", "EPOCH": "2025-12-02T03:00:46.825344", "MEAN_MOTION": 14.01624263, "ECCENTRICITY": 0.00664079, "INCLINATION": 99.2542, "RA_OF_ASC_NODE": 30.3872, "ARG_OF_PERICENTER": 310.7393, "MEAN_ANOMALY": 48.8018, "EPHEMERIS_TYPE": 0, "CLASSIFICATION_TYPE": "U", "NORAD_CAT_ID": 32334, "ELEMENT_SET_NO": 999, "REV_AT_EPOCH": 93791, "BSTAR": 0.00038671814, "MEAN_MOTION_DOT": 5.5e-06, "MEAN_MOTION_DDOT": 0}, "tle": {"line1": "1 32334U 99025CYB 25336.12554196  .00000550  00000+0  38672-3 0  9990", "line2": "2 32334  99.2542  30.3872 0066407 310.7393  48.8018 14.01624263937917"}}, "geometry": {"type": "Point", "coordinates": [-147.44905253945973, 9.85370648884606]}}, {"type": "Feature", "properties": {"norad_id": 32340, "name": "FENGYUN 1C DEB", "group": "fengyun-1c-debris", "lat": -33.0919409910197, "lon": -12.705831002531413, "alt_km": 629.5179677708838, "timestamp": "2025-12-02T15:49:07.476561+00:00", "meta": {"OBJECT_NAME": "FENGYUN 1C DEB", "OBJECT_ID": "1999-025CYH", "EPOCH": "2025-11-29T19:32:37.057056", "MEAN_MOTION": 14.73935588, "ECCENTRICITY": 0.00353706, "INCLINATION": 98.9824, "RA_OF_ASC_NODE": 338.2288, "ARG_OF_PERICENTER": 335.3222, "MEAN_ANOMALY": 24.6289, "EPHEMERIS_TYPE": 0, "CLASSIFICATION_TYPE": "U", "NORAD_CAT_ID": 32340, "ELEMENT_SET_NO": 999, "REV_AT_EPOCH": 97006, "BSTAR": 0.0025622678, "MEAN_MOTION_DOT": 0.00016961, "MEAN_MOTION_DDOT": 0}, "tle": {"line1": "1 32340U 99025CYH 25333.81431779  .00016961  00000+0  25623-2 0  9995", "line2": "2 32340  98.9824 338.2288 0035370 335.3222  24.6289 14.73935588970062"}}, "geometry": {"type": "Point", "coordinates": [-12.705831002531413, -33.0919409910197]}}, {"type": "Feature", "properties": {"norad_id": 32342, "name": "FENGYUN 1C DEB", "group": "fengyun-1c-debris", "lat": 75.99349306216857, "lon": -156.70690469921138, "alt_km": 839.6888411691416, "timestamp": "2025-12-02T15:49:07.476573+00:00", "meta": {"OBJECT_NAME": "FENGYUN 1C DEB", "OBJECT_ID": "1999-025CYK", "EPOCH": "2025-12-01T22:39:22.565088", "MEAN_MOTION": 14.13391553, "ECCENTRICITY": 0.00080673, "INCLINATION": 98.6709, "RA_OF_ASC_NODE": 344.8845, "ARG_OF_PERICENTER": 21.715, "MEAN_ANOMALY": 42.6562, "EPHEMERIS_TYPE": 0, "CLASSIFICATION_TYPE": "U", "NORAD_CAT_ID": 32342, "ELEMENT_SET_NO": 999, "REV_AT_EPOCH": 93565, "BSTAR": 0.00013020698, "MEAN_MOTION_DOT": 2.02e-06, "MEAN_MOTION_DDOT": 0}, "tle": {"line1": "1 32342U 99025CYK 25335.94401117  .00000202  00000+0  13021-3 0  9997", "line2": "2 32342  98.6709 344.8845 0008067  21.7150  42.6562 14.13391553935656"}}, "geometry": {"type": "Point", "coordinates": [-156.70690469921138, 75.99349306216857]}}, {"type": "Feature", "properties": {"norad_id": 32343, "name": "FENGYUN 1C DEB", "group": "fengyun-1c-debris", "lat": 41.092012533099734, "lon": -43.888280663911516, "alt_km": 867.0217587680181, "timestamp": "2025-12-02T15:49:07.476583+00:00", "meta": {"OBJECT_NAME": "FENGYUN 1C DEB", "OBJECT_ID": "1999-025CYL", "EPOCH": "2025-11-23T04:58:45.910848", "MEAN_MOTION": 14.1981282, "ECCENTRICITY": 0.01511129, "INCLINATION": 98.6065, "RA_OF_ASC_NODE": 314.5087, "ARG_OF_PERICENTER": 183.896, "MEAN_ANOMALY": 176.1052, "EPHEMERIS_TYPE": 0, "CLASSIFICATION_TYPE": "U", "NORAD_CAT_ID": 32343, "ELEMENT_SET_NO": 999, "REV_AT_EPOCH": 64436, "BSTAR": 0.00029765257, "MEAN_MOTION_DOT": 6.65e-06, "MEAN_MOTION_DDOT": 0}, "tle": {"line1": "1 32343U 99025CYL 25327.20747582  .00000665  00000+0  29765-3 0  9992", "line2": "2 32343  98.6065 314.5087 0151112 183.8960 176.1052 14.19812820644366"}}, "geometry": {"type": "Point", "coordinates": [-43.888280663911516, 41.092012533099734]}}, {"type": "Feature", "properties": {"norad_id": 32350, "name": "FENGYUN 1C DEB", "group": "fengyun-1c-debris", "lat": -32.65545004032368, "lon": -163.73763821969231, "alt_km": 805.8286043422077, "timestamp": "2025-12-02T15:49:07.476594+00:00", "meta": {"OBJECT_NAME": "FENGYUN 1C DEB", "OBJECT_ID": "1999-025CYT", "EPOCH": "2025-11-28T01:41:58.251840", "MEAN_MOTION": 14.5237482, "ECCENTRICITY": 0.02679046, "INCLINATION": 98.2308, "RA_OF_ASC_NODE": 17.0797, "ARG_OF_PERICENTER": 343.9928, "MEAN_ANOMALY": 15.2921, "EPHEMERIS_TYPE": 0, "CLASSIFICATION_TYPE": "U", "NORAD_CAT_ID": 32350, "ELEMENT_SET_NO": 999, "REV_AT_EPOCH": 97314, "BSTAR": 0.00079004574, "MEAN_MOTION_DOT": 5.107e-05, "MEAN_MOTION_DDOT": 0}, "tle": {"line1": "1 32350U 99025CYT 25332.07081310  .00005107  00000+0  79005-3 0  9999", "line2": "2 32350  98.2308  17.0797 0267904 343.9928  15.2921 14.52374820973142"}}, "geometry": {"type": "Point", "coordinates": [-163.73763821969231, -32.65545004032368]}}]}